[{"OBJECT_NAME":"STARLINK-3115","OBJECT_ID":"2021-104AR","EPOCH":"2025-08-02T04:01:11.060832","MEAN_MOTION":15.08837919,"ECCENTRICITY":0.0001375,"INCLINATION":53.2167,"RA_OF_ASC_NODE":124.5938,"ARG_OF_PERICENTER":84.8513,"MEAN_ANOMALY":275.2636,"EPHEMERIS_TYPE":0,"CLASSIFICATION_TYPE":"U","NORAD_CAT_ID":49447,"ELEMENT_SET_NO":999,"REV_AT_EPOCH":20563,"BSTAR":-2.2763e-5,"MEAN_MOTION_DOT":-6.5e-6,"MEAN_MOTION_DDOT":0},{"OBJECT_NAME":"STARLINK-3137","OBJECT_ID":"2021-104AT","EPOCH":"2025-08-02T00:35:53.255616","MEAN_MOTION":15.08838078,"ECCENTRICITY":0.000169,"INCLINATION":53.219,"RA_OF_ASC_NODE":125.1745,"ARG_OF_PERICENTER":96.3346,"MEAN_ANOMALY":263.7838,"EPHEMERIS_TYPE":0,"CLASSIFICATION_TYPE":"U","NORAD_CAT_ID":49449,"ELEMENT_SET_NO":999,"REV_AT_EPOCH":20561,"BSTAR":2.0326e-5,"MEAN_MOTION_DOT":3.5e-7,"MEAN_MOTION_DDOT":0},{"OBJECT_NAME":"STARLINK-3127","OBJECT_ID":"2021-104AU","EPOCH":"2025-08-02T01:01:01.384032","MEAN_MOTION":15.08836149,"ECCENTRICITY":0.0001202,"INCLINATION":53.2176,"RA_OF_ASC_NODE":125.1957,"ARG_OF_PERICENTER":87.7689,"MEAN_ANOMALY":272.3441,"EPHEMERIS_TYPE":0,"CLASSIFICATION_TYPE":"U","NORAD_CAT_ID":49450,"ELEMENT_SET_NO":999,"REV_AT_EPOCH":20668,"BSTAR":1.0874e-6,"MEAN_MOTION_DOT":-2.71e-6,"MEAN_MOTION_DDOT":0},{"OBJECT_NAME":"STARLINK-3125","OBJECT_ID":"2021-104AV","EPOCH":"2025-08-02T00:39:49.200192","MEAN_MOTION":15.08837614,"ECCENTRICITY":0.0001633,"INCLINATION":53.2181,"RA_OF_ASC_NODE":125.2177,"ARG_OF_PERICENTER":89.3679,"MEAN_ANOMALY":270.7501,"EPHEMERIS_TYPE":0,"CLASSIFICATION_TYPE":"U","NORAD_CAT_ID":49451,"ELEMENT_SET_NO":999,"REV_AT_EPOCH":20561,"BSTAR":4.5466e-6,"MEAN_MOTION_DOT":-2.16e-6,"MEAN_MOTION_DDOT":0},{"OBJECT_NAME":"STARLINK-3150","OBJECT_ID":"2021-104AW","EPOCH":"2025-08-02T03:36:04.232736","MEAN_MOTION":15.08843602,"ECCENTRICITY":0.0001391,"INCLINATION":53.2174,"RA_OF_ASC_NODE":124.7105,"ARG_OF_PERICENTER":91.5032,"MEAN_ANOMALY":268.6119,"EPHEMERIS_TYPE":0,"CLASSIFICATION_TYPE":"U","NORAD_CAT_ID":49452,"ELEMENT_SET_NO":999,"REV_AT_EPOCH":20563,"BSTAR":-9.7375e-6,"MEAN_MOTION_DOT":-4.43e-6,"MEAN_MOTION_DDOT":0},{"OBJECT_NAME":"STARLINK-3129","OBJECT_ID":"2021-104AX","EPOCH":"2025-08-02T03:51:58.817952","MEAN_MOTION":15.0884125,"ECCENTRICITY":0.0001481,"INCLINATION":53.2179,"RA_OF_ASC_NODE":124.7068,"ARG_OF_PERICENTER":101.8825,"MEAN_ANOMALY":258.2333,"EPHEMERIS_TYPE":0,"CLASSIFICATION_TYPE":"U","NORAD_CAT_ID":49453,"ELEMENT_SET_NO":999,"REV_AT_EPOCH":20563,"BSTAR":2.2207e-6,"MEAN_MOTION_DOT":-2.53e-6,"MEAN_MOTION_DDOT":0},{"OBJECT_NAME":"STARLINK-3160","OBJECT_ID":"2021-104AY","EPOCH":"2025-08-02T05:20:40.776288","MEAN_MOTION":15.08832287,"ECCENTRICITY":0.0001317,"INCLINATION":53.2169,"RA_OF_ASC_NODE":124.3475,"ARG_OF_PERICENTER":94.9023,"MEAN_ANOMALY":265.2119,"EPHEMERIS_TYPE":0,"CLASSIFICATION_TYPE":"U","NORAD_CAT_ID":49454,"ELEMENT_SET_NO":999,"REV_AT_EPOCH":20564,"BSTAR":-9.8617e-5,"MEAN_MOTION_DOT":-1.857e-5,"MEAN_MOTION_DDOT":0},{"OBJECT_NAME":"STARLINK-3145","OBJECT_ID":"2021-104AZ","EPOCH":"2025-08-02T03:24:05.494464","MEAN_MOTION":15.08839288,"ECCENTRICITY":0.0001391,"INCLINATION":53.2175,"RA_OF_ASC_NODE":124.7136,"ARG_OF_PERICENTER":91.7653,"MEAN_ANOMALY":268.3499,"EPHEMERIS_TYPE":0,"CLASSIFICATION_TYPE":"U","NORAD_CAT_ID":49455,"ELEMENT_SET_NO":999,"REV_AT_EPOCH":20563,"BSTAR":6.7963e-5,"MEAN_MOTION_DOT":7.94e-6,"MEAN_MOTION_DDOT":0},{"OBJECT_NAME":"STARLINK-3124","OBJECT_ID":"2021-104BA","EPOCH":"2025-08-02T03:41:22.353216","MEAN_MOTION":15.08840006,"ECCENTRICITY":0.0001384,"INCLINATION":53.2173,"RA_OF_ASC_NODE":124.7008,"ARG_OF_PERICENTER":95.6726,"MEAN_ANOMALY":264.4424,"EPHEMERIS_TYPE":0,"CLASSIFICATION_TYPE":"U","NORAD_CAT_ID":49456,"ELEMENT_SET_NO":999,"REV_AT_EPOCH":20563,"BSTAR":4.2777e-5,"MEAN_MOTION_DOT":3.93e-6,"MEAN_MOTION_DDOT":0},{"OBJECT_NAME":"STARLINK-3132","OBJECT_ID":"2021-104BB","EPOCH":"2025-08-02T01:44:47.321088","MEAN_MOTION":15.08836604,"ECCENTRICITY":0.0001417,"INCLINATION":53.2177,"RA_OF_ASC_NODE":125.0342,"ARG_OF_PERICENTER":88.7667,"MEAN_ANOMALY":271.3487,"EPHEMERIS_TYPE":0,"CLASSIFICATION_TYPE":"U","NORAD_CAT_ID":49457,"ELEMENT_SET_NO":999,"REV_AT_EPOCH":20562,"BSTAR":5.2175e-5,"MEAN_MOTION_DOT":5.42e-6,"MEAN_MOTION_DDOT":0},{"OBJECT_NAME":"STARLINK-3156","OBJECT_ID":"2021-104BC","EPOCH":"2025-08-02T03:29:23.420544","MEAN_MOTION":15.0884332,"ECCENTRICITY":0.0001396,"INCLINATION":53.2166,"RA_OF_ASC_NODE":124.6964,"ARG_OF_PERICENTER":76.2376,"MEAN_ANOMALY":283.8772,"EPHEMERIS_TYPE":0,"CLASSIFICATION_TYPE":"U","NORAD_CAT_ID":49458,"ELEMENT_SET_NO":999,"REV_AT_EPOCH":20563,"BSTAR":0.00011753,"MEAN_MOTION_DOT":1.583e-5,"MEAN_MOTION_DDOT":0},{"OBJECT_NAME":"STARLINK-3141","OBJECT_ID":"2021-104BD","EPOCH":"2025-08-02T03:13:29.610336","MEAN_MOTION":15.08840897,"ECCENTRICITY":0.0001381,"INCLINATION":53.2169,"RA_OF_ASC_NODE":124.7453,"ARG_OF_PERICENTER":109.1797,"MEAN_ANOMALY":250.9345,"EPHEMERIS_TYPE":0,"CLASSIFICATION_TYPE":"U","NORAD_CAT_ID":49459,"ELEMENT_SET_NO":999,"REV_AT_EPOCH":20563,"BSTAR":4.6821e-5,"MEAN_MOTION_DOT":4.57e-6,"MEAN_MOTION_DDOT":0},{"OBJECT_NAME":"STARLINK-3140","OBJECT_ID":"2021-104BE","EPOCH":"2025-08-02T03:08:11.651424","MEAN_MOTION":15.08839101,"ECCENTRICITY":0.0001601,"INCLINATION":53.216,"RA_OF_ASC_NODE":124.7598,"ARG_OF_PERICENTER":98.8541,"MEAN_ANOMALY":261.2632,"EPHEMERIS_TYPE":0,"CLASSIFICATION_TYPE":"U","NORAD_CAT_ID":49460,"ELEMENT_SET_NO":999,"REV_AT_EPOCH":20562,"BSTAR":2.6859e-5,"MEAN_MOTION_DOT":1.39e-6,"MEAN_MOTION_DDOT":0},{"OBJECT_NAME":"STARLINK-3219","OBJECT_ID":"2021-115A","EPOCH":"2025-08-02T12:44:32.602560","MEAN_MOTION":15.08816021,"ECCENTRICITY":0.0001183,"INCLINATION":53.2175,"RA_OF_ASC_NODE":53.182,"ARG_OF_PERICENTER":89.4179,"MEAN_ANOMALY":270.6949,"EPHEMERIS_TYPE":0,"CLASSIFICATION_TYPE":"U","NORAD_CAT_ID":49724,"ELEMENT_SET_NO":999,"REV_AT_EPOCH":20244,"BSTAR":8.2646e-5,"MEAN_MOTION_DOT":1.027e-5,"MEAN_MOTION_DDOT":0},{"OBJECT_NAME":"STARLINK-3218","OBJECT_ID":"2021-115B","EPOCH":"2025-08-02T13:16:16.383360","MEAN_MOTION":15.08852752,"ECCENTRICITY":0.0001381,"INCLINATION":53.2181,"RA_OF_ASC_NODE":52.9717,"ARG_OF_PERICENTER":82.2906,"MEAN_ANOMALY":277.8243,"EPHEMERIS_TYPE":0,"CLASSIFICATION_TYPE":"U","NORAD_CAT_ID":49725,"ELEMENT_SET_NO":999,"REV_AT_EPOCH":20356,"BSTAR":0.00012277,"MEAN_MOTION_DOT":1.667e-5,"MEAN_MOTION_DDOT":0},{"OBJECT_NAME":"STARLINK-3242","OBJECT_ID":"2021-115D","EPOCH":"2025-08-01T23:28:15.758688","MEAN_MOTION":15.08847826,"ECCENTRICITY":0.0001672,"INCLINATION":53.2173,"RA_OF_ASC_NODE":65.4529,"ARG_OF_PERICENTER":78.9783,"MEAN_ANOMALY":281.1397,"EPHEMERIS_TYPE":0,"CLASSIFICATION_TYPE":"U","NORAD_CAT_ID":49727,"ELEMENT_SET_NO":999,"REV_AT_EPOCH":20222,"BSTAR":0.00013845,"MEAN_MOTION_DOT":1.917e-5,"MEAN_MOTION_DDOT":0},{"OBJECT_NAME":"STARLINK-3240","OBJECT_ID":"2021-115E","EPOCH":"2025-08-01T23:33:34.731936","MEAN_MOTION":15.08838348,"ECCENTRICITY":0.0001487,"INCLINATION":53.2185,"RA_OF_ASC_NODE":65.4273,"ARG_OF_PERICENTER":88.1186,"MEAN_ANOMALY":271.9977,"EPHEMERIS_TYPE":0,"CLASSIFICATION_TYPE":"U","NORAD_CAT_ID":49728,"ELEMENT_SET_NO":999,"REV_AT_EPOCH":20222,"BSTAR":1.5023e-5,"MEAN_MOTION_DOT":-4.9e-7,"MEAN_MOTION_DDOT":0}]
