STARLINK-3115           
1 49447U 21104AR  25214.16748913 -.00000650  00000+0 -22763-4 0  9995
2 49447  53.2167 124.5938 0001375  84.8513 275.2636 15.08837919205639
STARLINK-3137           
1 49449U 21104AT  25214.02492194  .00000035  00000+0  20326-4 0  9997
2 49449  53.2190 125.1745 0001690  96.3346 263.7838 15.08838078205613
STARLINK-3127           
1 49450U 21104AU  25214.04237713 -.00000271  00000+0  10874-5 0  9996
2 49450  53.2176 125.1957 0001202  87.7689 272.3441 15.08836149206688
STARLINK-3125           
1 49451U 21104AV  25214.02765278 -.00000216  00000+0  45466-5 0  9991
2 49451  53.2181 125.2177 0001633  89.3679 270.7501 15.08837614205614
STARLINK-3150           
1 49452U 21104AW  25214.15004899 -.00000443  00000+0 -97375-5 0  9990
2 49452  53.2174 124.7105 0001391  91.5032 268.6119 15.08843602205638
STARLINK-3129           
1 49453U 21104AX  25214.16109743 -.00000253  00000+0  22207-5 0  9996
2 49453  53.2179 124.7068 0001481 101.8825 258.2333 15.08841250205637
STARLINK-3160           
1 49454U 21104AY  25214.22269417 -.00001857  00000+0 -98617-4 0  9998
2 49454  53.2169 124.3475 0001317  94.9023 265.2119 15.08832287205646
STARLINK-3145           
1 49455U 21104AZ  25214.14173026  .00000794  00000+0  67963-4 0  9997
2 49455  53.2175 124.7136 0001391  91.7653 268.3499 15.08839288205630
STARLINK-3124           
1 49456U 21104BA  25214.15373094  .00000393  00000+0  42777-4 0  9997
2 49456  53.2173 124.7008 0001384  95.6726 264.4424 15.08840006205638
STARLINK-3132           
1 49457U 21104BB  25214.07276992  .00000542  00000+0  52175-4 0  9997
2 49457  53.2177 125.0342 0001417  88.7667 271.3487 15.08836604205626
STARLINK-3156           
1 49458U 21104BC  25214.14540996  .00001583  00000+0  11753-3 0  9996
2 49458  53.2166 124.6964 0001396  76.2376 283.8772 15.08843320205634
STARLINK-3141           
1 49459U 21104BD  25214.13437049  .00000457  00000+0  46821-4 0  9994
2 49459  53.2169 124.7453 0001381 109.1797 250.9345 15.08840897205636
STARLINK-3140           
1 49460U 21104BE  25214.13069041  .00000139  00000+0  26859-4 0  9995
2 49460  53.2160 124.7598 0001601  98.8541 261.2632 15.08839101205624
STARLINK-3219           
1 49724U 21115A   25214.53093290  .00001027  00000+0  82646-4 0  9990
2 49724  53.2175  53.1820 0001183  89.4179 270.6949 15.08816021202442
STARLINK-3218           
1 49725U 21115B   25214.55296740  .00001667  00000+0  12277-3 0  9990
2 49725  53.2181  52.9717 0001381  82.2906 277.8243 15.08852752203562
STARLINK-3242           
1 49727U 21115D   25213.97796017  .00001917  00000+0  13845-3 0  9999
2 49727  53.2173  65.4529 0001672  78.9783 281.1397 15.08847826202229
STARLINK-3240           
1 49728U 21115E   25213.98165199 -.00000049  00000+0  15023-4 0  9999
2 49728  53.2185  65.4273 0001487  88.1186 271.9977 15.08838348202223
